IRIDIUM 63              
1 25286U 98021B   25285.33674152  .00000683  00000+0  22561-3 0  9991
2 25286  86.4017  32.9601 0001942  94.5952 265.5467 14.36657095440663
IRIDIUM 69              
1 25319U 98026A   25285.33656656  .00000899  00000+0  27322-3 0  9991
2 25319  86.3987  45.8790 0003030  41.4932 318.6497 14.41104631439936
IRIDIUM 71              
1 25320U 98026B   25285.32869032  .00000506  00000+0  15061-3 0  9998
2 25320  86.3996  40.5594 0004078  76.3027 283.8626 14.41258290440465
IRIDIUM 73              
1 25344U 98032C   25285.23496360  .00000821  00000+0  19893-3 0  9998
2 25344  86.4464 357.1167 0001850  77.7857 282.3556 14.51875011447545
IRIDIUM 82              
1 25467U 98051A   25285.30572808  .00069702  00000+0  16098-2 0  9991
2 25467  86.3640  51.8512 0072737 209.9773 149.7308 15.39465776441923
